ORBCOMM-X               
1 21576U 91050C   24154.16511572  .00000463  00000+0  15274-3 0  9994
2 21576  98.3898 221.6308 0002526 246.1154 113.9771 14.42534022727314
ORBCOMM FM02            
1 23546U 95017B   24154.51404051  .00006233  00000+0  83149-3 0  9999
2 23546  69.9689 313.4275 0008469 192.2173 167.8772 14.80020360555777
ORBCOMM FM11            
1 25114U 97084C   24154.07042694  .00001904  00000+0  61199-3 0  9991
2 25114  45.0153  30.3227 0005880  97.9424 262.2094 14.42483843386537
ORBCOMM FM12            
1 25115U 97084D   24154.10005504  .00001811  00000+0  58476-3 0  9996
2 25115  45.0161  29.8846 0004873  98.0395 262.1008 14.42452253386330
ORBCOMM FM09            
1 25116U 97084E   24153.76562786  .00001658  00000+0  53950-3 0  9999
2 25116  45.0163  32.1742 0005989  82.6870 277.4661 14.42411524386498
